[{"OBJECT_NAME":"JUGNU","OBJECT_ID":"2011-058B","EPOCH":"2026-03-09T11:56:36.486528","MEAN_MOTION":14.1374078,"ECCENTRICITY":0.00187632,"INCLINATION":19.9594,"RA_OF_ASC_NODE":194.0637,"ARG_OF_PERICENTER":55.3849,"MEAN_ANOMALY":14.6148,"EPHEMERIS_TYPE":0,"CLASSIFICATION_TYPE":"U","NORAD_CAT_ID":37839,"ELEMENT_SET_NO":999,"REV_AT_EPOCH":74490,"BSTAR":0.00014293025,"MEAN_MOTION_DOT":5.41e-6,"MEAN_MOTION_DDOT":0},{"OBJECT_NAME":"CZ-6A DEB","OBJECT_ID":"2022-151GS","EPOCH":"2026-03-09T23:05:49.491168","MEAN_MOTION":14.17077556,"ECCENTRICITY":0.00285411,"INCLINATION":98.8288,"RA_OF_ASC_NODE":81.4977,"ARG_OF_PERICENTER":224.4729,"MEAN_ANOMALY":135.4154,"EPHEMERIS_TYPE":0,"CLASSIFICATION_TYPE":"U","NORAD_CAT_ID":54466,"ELEMENT_SET_NO":999,"REV_AT_EPOCH":17133,"BSTAR":0.00073907945,"MEAN_MOTION_DOT":1.449e-5,"MEAN_MOTION_DDOT":0}]
